NORAD_CAT_ID,OBJECT_NAME,OBJECT_TYPE,EPOCH,MEAN_MOTION,ECCENTRICITY,INCLINATION,RA_OF_ASC_NODE,ARG_OF_PERICENTER,MEAN_ANOMALY,BSTAR,MEAN_MOTION_DOT,MEAN_MOTION_DDOT,TLE_LINE0,TLE_LINE1,TLE_LINE2,SEMIMAJOR_AXIS,PERIOD,APOGEE,PERIGEE,DECAYED
53562.0,STARLINK-4565,PAYLOAD,2024-05-18 05:07:11,15.08841987,0.0001521,53.2164,139.2578,101.2484,258.8679,-5.3511e-06,-3.73e-06,0.0,0 STARLINK-4565,1 53562U 22101AM  24139.21332926 -.00000373  00000-0 -53511-5 0  9999,2 53562  53.2164 139.2578 0001521 101.2484 258.8679 15.08841987 96739,6917.874,95.437,540.792,538.687,0.0
53562.0,STARLINK-4565,PAYLOAD,2024-05-18 09:53:20,15.08846147,0.0001499,53.2163,138.3662,97.1556,262.9606,2.2619e-05,7.2e-07,0.0,0 STARLINK-4565,1 53562U 22101AM  24139.41204517  .00000072  00000-0  22619-4 0  9993,2 53562  53.2163 138.3662 0001499  97.1556 262.9606 15.08846147 97425,6917.862,95.437,540.764,538.69,0.0
53562.0,STARLINK-4565,PAYLOAD,2024-05-19 04:57:59,15.08811059,0.0001447,53.2159,134.7948,108.1395,251.9754,0.00046363,7.093e-05,0.0,0 STARLINK-4565,1 53562U 22101AM  24140.20693819  .00007093  00000-0  46363-3 0  9990,2 53562  53.2159 134.7948 0001447 108.1395 251.9754 15.08811059 96889,6917.969,95.439,540.835,538.833,0.0
53562.0,STARLINK-4565,PAYLOAD,2024-05-19 06:33:21,15.08835628,0.0001524,53.2165,134.4981,96.845,263.2715,0.00011391,1.525e-05,0.0,0 STARLINK-4565,1 53562U 22101AM  24140.27316959  .00001525  00000-0  11391-3 0  9991,2 53562  53.2165 134.4981 0001524  96.8450 263.2715 15.08835628 97557,6917.894,95.438,540.813,538.704,0.0
53562.0,STARLINK-4565,PAYLOAD,2024-05-20 04:48:45,15.08838771,0.0001526,53.2166,130.3355,96.9135,263.2031,3.7541e-05,3.1e-06,0.0,0 STARLINK-4565,1 53562U 22101AM  24141.20053240  .00000310  00000-0  37541-4 0  9993,2 53562  53.2166 130.3355 0001526  96.9135 263.2031 15.08838771 97699,6917.884,95.438,540.805,538.693,0.0
53562.0,STARLINK-4565,PAYLOAD,2024-05-21 04:39:33,15.08834819,0.0001512,53.2169,125.8769,95.9319,264.1845,1.9896e-05,2.9e-07,0.0,0 STARLINK-4565,1 53562U 22101AM  24142.19413764  .00000029  00000-0  19896-4 0  9993,2 53562  53.2169 125.8769 0001512  95.9319 264.1845 15.08834819 97184,6917.896,95.438,540.807,538.715,0.0
53562.0,STARLINK-4565,PAYLOAD,2024-05-21 06:14:56,15.08835767,0.0001459,53.2165,125.5781,89.6873,270.4286,2.2674e-05,7.3e-07,0.0,0 STARLINK-4565,1 53562U 22101AM  24142.26037716  .00000073  00000-0  22674-4 0  9997,2 53562  53.2165 125.5781 0001459  89.6873 270.4286 15.08835767 97852,6917.893,95.438,540.768,538.749,0.0
53562.0,STARLINK-4565,PAYLOAD,2024-05-22 06:05:43,15.08838595,0.0001391,53.2165,121.1194,86.4412,273.6739,5.8005e-05,6.35e-06,0.0,0 STARLINK-4565,1 53562U 22101AM  24143.25397703  .00000635  00000-0  58005-4 0  9993,2 53562  53.2165 121.1194 0001391  86.4412 273.6739 15.08838595 97345,6917.885,95.438,540.712,538.787,0.0
53562.0,STARLINK-4565,PAYLOAD,2024-05-23 05:56:30,15.08841265,0.0001532,53.2173,116.6578,78.8921,281.2243,9.3512e-05,1.201e-05,0.0,0 STARLINK-4565,1 53562U 22101AM  24144.24757606  .00001201  00000-0  93512-4 0  9997,2 53562  53.2173 116.6578 0001532  78.8921 281.2243 15.08841265 98159,6917.877,95.437,540.801,538.682,0.0
53562.0,STARLINK-4565,PAYLOAD,2024-05-23 21:50:21,15.08844026,0.0001672,53.2177,113.6879,72.782,287.3355,6.2927e-05,7.14e-06,0.0,0 STARLINK-4565,1 53562U 22101AM  24144.90997597  .00000714  00000-0  62927-4 0  9999,2 53562  53.2177 113.6879 0001672  72.7820 287.3355 15.08844026 98250,6917.868,95.437,540.89,538.576,0.0
53562.0,STARLINK-4565,PAYLOAD,2024-05-24 04:11:54,15.08845766,0.0001682,53.2177,112.4983,72.3285,287.7891,7.2682e-05,8.69e-06,0.0,0 STARLINK-4565,1 53562U 22101AM  24145.17493380  .00000869  00000-0  72682-4 0  9990,2 53562  53.2177 112.4983 0001682  72.3285 287.7891 15.08845766 97637,6917.863,95.437,540.891,538.564,0.0
53562.0,STARLINK-4565,PAYLOAD,2024-05-24 07:22:39,15.08852038,0.0001448,53.2168,111.9,86.3473,273.7685,0.00010678,1.412e-05,0.0,0 STARLINK-4565,1 53562U 22101AM  24145.30740673  .00001412  00000-0  10678-3 0  9996,2 53562  53.2168 111.9000 0001448  86.3473 273.7685 15.08852038 98317,6917.844,95.437,540.71,538.707,0.0
53562.0,STARLINK-4565,PAYLOAD,2024-05-25 04:02:41,15.08839289,0.0001548,53.2179,108.0237,109.4869,250.6291,-6.5719e-05,-1.334e-05,0.0,0 STARLINK-4565,1 53562U 22101AM  24146.16853835 -.00001334  00000-0 -65719-4 0  9998,2 53562  53.2179 108.0237 0001548 109.4869 250.6291 15.08839289 97785,6917.883,95.438,540.818,538.677,0.0
53562.0,STARLINK-4565,PAYLOAD,2024-05-26 03:53:28,15.08845507,0.0001254,53.217,103.5724,95.8367,264.2768,-1.7294e-05,-5.63e-06,0.0,0 STARLINK-4565,1 53562U 22101AM  24147.16213516 -.00000563  00000-0 -17294-4 0  9993,2 53562  53.2170 103.5724 0001254  95.8367 264.2768 15.08845507 97939,6917.864,95.437,540.596,538.861,0.0
53562.0,STARLINK-4565,PAYLOAD,2024-05-26 21:22:43,15.0883259,0.000146,53.2179,100.3113,97.8012,262.3146,3.212e-05,2.23e-06,0.0,0 STARLINK-4565,1 53562U 22101AM  24147.89078456  .00000223  00000-0  32120-4 0  9991,2 53562  53.2179 100.3113 0001460  97.8012 262.3146 15.08832590 98043,6917.903,95.438,540.778,538.758,0.0
53562.0,STARLINK-4565,PAYLOAD,2024-05-27 13:16:35,15.0883109,0.0001442,53.2183,97.3317,106.1609,253.9542,4.0248e-06,-2.24e-06,0.0,0 STARLINK-4565,1 53562U 22101AM  24148.55318760 -.00000224  00000-0  40248-5 0  9993,2 53562  53.2183  97.3317 0001442 106.1609 253.9542 15.08831090 98809,6917.908,95.438,540.77,538.775,0.0
53562.0,STARLINK-4565,PAYLOAD,2024-05-27 21:13:31,15.08825473,0.000168,53.2191,95.849,111.149,248.9682,-2.4945e-05,-6.85e-06,0.0,0 STARLINK-4565,1 53562U 22101AM  24148.88439510 -.00000685  00000-0 -24945-4 0  9993,2 53562  53.2191  95.8490 0001680 111.1490 248.9682 15.08825473 98190,6917.925,95.438,540.952,538.628,0.0
53562.0,STARLINK-4565,PAYLOAD,2024-05-28 13:07:23,15.08825598,0.0001545,53.2185,92.8705,116.0776,244.0375,-1.8285e-05,-5.79e-06,0.0,0 STARLINK-4565,1 53562U 22101AM  24149.54679922 -.00000579  00000-0 -18285-4 0  9992,2 53562  53.2185  92.8705 0001545 116.0776 244.0375 15.08825598 98958,6917.924,95.438,540.858,538.721,0.0
53562.0,STARLINK-4565,PAYLOAD,2024-05-29 05:01:12,15.08854236,0.0001772,53.2182,89.8944,111.667,248.451,5.7626e-05,6.29e-06,0.0,0 STARLINK-4565,1 53562U 22101AM  24150.20917769  .00000629  00000-0  57626-4 0  9997,2 53562  53.2182  89.8944 0001772 111.6670 248.4510 15.08854236 98390,6917.837,95.437,540.928,538.476,0.0
53562.0,STARLINK-4565,PAYLOAD,2024-05-29 19:19:41,15.08848483,0.0001525,53.2174,87.2212,95.2301,264.8865,1.6764e-05,-2.1e-07,0.0,0 STARLINK-4565,1 53562U 22101AM  24150.80534526 -.00000021  00000-0  16764-4 0  9994,2 53562  53.2174  87.2212 0001525  95.2301 264.8865 15.08848483 98487,6917.854,95.437,540.774,538.664,0.0
53562.0,STARLINK-4565,PAYLOAD,2024-05-30 04:52:00,15.08847089,0.0001505,53.2189,85.4352,79.9872,280.129,7.7844e-05,9.51e-06,0.0,0 STARLINK-4565,1 53562U 22101AM  24151.20278566  .00000951  00000-0  77844-4 0  9995,2 53562  53.2189  85.4352 0001505  79.9872 280.1290 15.08847089 99203,6917.859,95.437,540.765,538.683,0.0
53562.0,STARLINK-4565,PAYLOAD,2024-05-31 03:07:24,15.08849924,0.0001495,53.2189,81.2719,83.9456,276.1707,-2.8764e-05,-7.46e-06,0.0,0 STARLINK-4565,1 53562U 22101AM  24152.13014489 -.00000746  00000-0 -28764-4 0  9991,2 53562  53.2189  81.2719 0001495  83.9456 276.1707 15.08849924 98684,6917.85,95.437,540.749,538.681,0.0
53562.0,STARLINK-4565,PAYLOAD,2024-05-31 19:01:15,15.08844427,0.0001528,53.2187,78.3014,82.651,277.4656,7.6611e-05,9.32e-06,0.0,0 STARLINK-4565,1 53562U 22101AM  24152.79254161  .00000932  00000-0  76611-4 0  9995,2 53562  53.2187  78.3014 0001528  82.6510 277.4656 15.08844427 99446,6917.867,95.437,540.789,538.675,0.0
53562.0,STARLINK-4565,PAYLOAD,2024-06-01 04:33:33,15.0885392,0.0001378,53.218,76.5137,97.3672,262.7476,8.2532e-05,1.026e-05,0.0,0 STARLINK-4565,1 53562U 22101AM  24153.18997231  .00001026  00000-0  82532-4 0  9995,2 53562  53.2180  76.5137 0001378  97.3672 262.7476 15.08853920 98848,6917.838,95.437,540.656,538.75,0.0
53562.0,STARLINK-4565,PAYLOAD,2024-06-01 12:30:30,15.0883704,0.0001839,53.2188,75.0236,102.6436,257.4761,-3.0156e-05,-7.68e-06,0.0,0 STARLINK-4565,1 53562U 22101AM  24153.52118681 -.00000768  00000-0 -30156-4 0  9996,2 53562  53.2188  75.0236 0001839 102.6436 257.4761 15.08837040 98898,6917.889,95.438,541.027,538.482,0.0
53562.0,STARLINK-4565,PAYLOAD,2024-06-02 04:24:23,15.08822375,0.0001462,53.2182,72.0537,105.2017,254.9136,-0.00013222,-2.391e-05,0.0,0 STARLINK-4565,1 53562U 22101AM  24154.18360419 -.00002391  00000-0 -13222-3 0  9995,2 53562  53.2182  72.0537 0001462 105.2017 254.9136 15.08822375 98993,6917.934,95.439,540.811,538.788,0.0
53562.0,STARLINK-4565,PAYLOAD,2024-06-02 18:42:48,15.08864022,0.0001514,53.2179,69.3772,92.7729,267.3437,0.0001731,2.47e-05,0.0,0 STARLINK-4565,1 53562U 22101AM  24154.77972555  .00002470  00000-0  17310-3 0  9998,2 53562  53.2179  69.3772 0001514  92.7729 267.3437 15.08864022 99085,6917.807,95.436,540.719,538.625,0.0
53562.0,STARLINK-4565,PAYLOAD,2024-06-03 04:15:08,15.08842571,8.25e-05,53.2185,67.5929,84.4261,275.6825,-4.6555e-05,-1.029e-05,0.0,0 STARLINK-4565,1 53562U 22101AM  24155.17718357 -.00001029  00000-0 -46555-4 0  9996,2 53562  53.2185  67.5929 0000825  84.4261 275.6825 15.08842571 99144,6917.873,95.437,540.308,539.167,0.0
53562.0,STARLINK-4565,PAYLOAD,2024-06-03 10:36:41,15.08841984,6.82e-05,53.2181,66.4031,78.5086,281.5983,-6.2109e-05,-1.276e-05,0.0,0 STARLINK-4565,1 53562U 22101AM  24155.44214400 -.00001276  00000-0 -62109-4 0  9993,2 53562  53.2181  66.4031 0000682  78.5086 281.5983 15.08841984 99847,6917.874,95.437,540.211,539.268,0.0
53562.0,STARLINK-4565,PAYLOAD,2024-06-04 00:55:10,15.08825282,8.05e-05,53.2189,63.7276,87.3261,272.7824,0.00014971,2.095e-05,0.0,0 STARLINK-4565,1 53562U 22101AM  24156.03831345  .00002095  00000-0  14971-3 0  9993,2 53562  53.2189  63.7276 0000805  87.3261 272.7824 15.08825282 99272,6917.925,95.438,540.347,539.233,0.0
